HST                     
1 20580U 90037B   26164.23141094  .00006133  00000+0  19317-3 0  9993
2 20580  28.4712 107.6084 0001932 101.0971 258.9842 15.30704754787962
POLAR                   
1 23802U 96013A   26164.18585364  .00000143  00000+0  00000+0 0  9999
2 23802  79.8486 227.0990 6466553 209.2175  89.5922  1.29846128144802
SWAS                    
1 25560U 98071A   26164.63639800  .00003434  00000+0  21948-3 0  9997
2 25560  69.8961 236.6760 0008753 263.7774  96.2393 15.09608009496737
CXO                     
1 25867U 99040B   26166.73124906  .00000579  00000+0  00000+0 0  9992
2 25867  56.1776 116.6293 7842889 310.3072   0.0447  0.37804362 17312
XMM-NEWTON              
1 25989U 99066A   26165.35763487  .00000064  00000+0  00000+0 0  9994
2 25989  64.5048 283.0226 4675842  64.9764   0.1205  0.50124916 22995
TERRA                   
1 25994U 99068A   26164.60549288  .00000372  00000+0  84721-4 0  9999
2 25994  97.9457 214.2937 0001301 202.9904 281.7027 14.61100584409089
CLUSTER II-FM7 (SAMBA)  
1 26410U 00041A   26165.90943278  .00008926  00000+0  00000+0 0  9993
2 26410 149.9112  50.5199 9050263 267.6271 359.8755  0.44879327 20296
CLUSTER II-FM8 (TANGO)  
1 26464U 00045B   26163.93586103  .00006615  00000+0  00000+0 0  9990
2 26464 150.1475  51.1959 9055540 268.1324   3.0125  0.44415453 20295
ODIN                    
1 26702U 01007A   26164.60055698  .00175916  00000+0  11817-2 0  9991
2 26702  97.3844 205.3153 0006464 147.3614 212.8052 15.74659438388831
TIMED                   
1 26998U 01055B   26164.59601697  .00001156  00000+0  10849-3 0  9994
2 26998  74.0675 242.2492 0000922 342.4496  17.6656 14.95288346330282
CORIOLIS                
1 27640U 03001A   26164.60346215  .00000090  00000+0  63026-4 0  9998
2 27640  98.7125 171.5429 0013188 219.6568 140.3645 14.19943887213711
SORCE                   
1 27651U 03004A   26164.61959786  .00002888  00000+0  21733-3 0  9992
2 27651  39.9912 282.0326 0016940  22.3556 337.7973 15.03696395271367
MOST                    
1 27843U 03031D   26164.55065369  .00000066  00000+0  50141-4 0  9995
2 27843  98.7045 172.3274 0008687 262.3473  97.6717 14.21321833190196
SCISAT 1                
1 27858U 03036A   26164.37644191  .00000466  00000+0  64217-4 0  9995
2 27858  73.9285 178.9144 0008628 248.3864 111.6394 14.81444219230883
SWIFT                   
1 28485U 04047A   26164.43390980  .00049808  00000+0  41971-3 0  9990
2 28485  20.5501 213.8473 0001818 226.7850 133.2444 15.67989635186272
HINODE (SOLAR-B)        
1 29479U 06041A   26164.64251167  .00000656  00000+0  12108-3 0  9994
2 29479  98.0549 180.8473 0016132 302.0569  57.9069 14.68618745 54350
SHIJIAN-6 02A (SJ-6 02A)
1 29505U 06046A   26164.66142700  .00008526  00000+0  43586-3 0  9991
2 29505  97.6361 205.7017 0004102 133.5641 226.5933 15.16906424 71733
SHIJIAN-6 02B (SJ-6 02B)
1 29506U 06046B   26164.61409227  .00001531  00000+0  12326-3 0  9994
2 29506  97.7164 193.6947 0015177  70.6200 289.6664 15.01369387 70206
FGRST (GLAST)           
1 33053U 08029A   26164.56178240  .00003071  00000+0  10986-3 0  9992
2 33053  25.5812 229.6566 0007579 284.3079  75.6618 15.23933052995285
SDO                     
1 36395U 10005A   26164.30669706 -.00000088  00000+0  00000+0 0  9993
2 36395  34.6434  86.4016 0001673  51.3791 132.2019  1.00270114 60022
CRYOSAT 2               
1 36508U 10013A   26164.63549713  .00000166  00000+0  40557-4 0  9991
2 36508  92.0352 276.4383 0002183  88.0653 272.0804 14.51898017857560
X-SAT                   
1 37389U 11015C   26164.64505356 -.00000033  00000+0  34557-5 0  9996
2 37389  98.3501 141.8369 0014232 358.9855   1.1294 14.25204671787174
GCOM-W1 (SHIZUKU)       
1 38337U 12025A   26164.62065937  .00000430  00000+0  10544-3 0  9994
2 38337  98.2022 105.2303 0001814  77.3740  95.5843 14.57121686748515
NUSTAR                  
1 38358U 12031A   26164.66668981  .00008509  00000+0  47214-3 0  9995
2 38358   6.0269  60.5394 0007065  48.7425 305.3387 15.08772220  1304
NEOSSAT                 
1 39089U 13009D   26164.44644170  .00000138  00000+0  62388-4 0  9993
2 39089  98.4175 344.5681 0009810 256.3381 103.6713 14.35825190696204
BRITE-AUSTRIA           
1 39091U 13009F   26164.44692919  .00000158  00000+0  68447-4 0  9994
2 39091  98.3993 343.9753 0009031 249.1124 110.9097 14.36540717696517
IRIS                    
1 39197U 13033A   26164.52846171  .00001009  00000+0  12170-3 0  9995
2 39197  97.9332   3.8171 0023804 334.1782  25.8243 14.85878789699833
HISAKI (SPRINT-A)       
1 39253U 13049A   26163.93065597  .00000139  00000+0  10132-3 0  9993
2 39253  29.7192 241.6544 0136891 342.3499  17.2350 13.55544353630849
CASSIOPE                
1 39265U 13055A   26164.55339990  .00050826 -40083-6  55711-3 0  9996
2 39265  80.9156  71.1331 0294057  74.6430 288.7088 15.24860057667113
STSAT-3                 
1 39422U 13066G   26164.65029043  .00003124  00000+0  23806-3 0  9995
2 39422  97.6209 134.5953 0011141  54.2621 305.9639 15.02737203683678
SWARM B                 
1 39451U 13067A   26164.59860442  .00003405  00000+0  12147-3 0  9995
2 39451  87.7433 343.4074 0003364  88.3080 271.8554 15.28531338682696
