OBJECT_NAME,OBJECT_ID,EPOCH,MEAN_MOTION,ECCENTRICITY,INCLINATION,RA_OF_ASC_NODE,ARG_OF_PERICENTER,MEAN_ANOMALY,EPHEMERIS_TYPE,CLASSIFICATION_TYPE,NORAD_CAT_ID,ELEMENT_SET_NO,REV_AT_EPOCH,BSTAR,MEAN_MOTION_DOT,MEAN_MOTION_DDOT
HST,1990-037B,2026-06-13T05:33:13.905216,15.30704754,.0001932,28.4712,107.6084,101.0971,258.9842,0,U,20580,999,78796,.19317E-3,.6133E-4,0
POLAR,1996-013A,2026-06-13T04:27:37.754496,1.29846128,.64665534,79.8486,227.0990,209.2175,89.5922,0,U,23802,999,14480,0,.143E-5,0
SWAS,1998-071A,2026-06-13T15:16:24.787200,15.09608009,.00087539,69.8961,236.6760,263.7774,96.2393,0,U,25560,999,49673,.21947736E-3,.3434E-4,0
CXO,1999-040B,2026-06-15T17:32:59.918784,0.37804362,.7842889,56.1776,116.6293,310.3072,0.0447,0,U,25867,999,1731,0,.579E-5,0
XMM-NEWTON,1999-066A,2026-06-14T08:34:59.652768,0.50124916,.46758429,64.5048,283.0226,64.9764,0.1205,0,U,25989,999,2299,0,.64E-6,0
TERRA,1999-068A,2026-06-13T14:31:54.584832,14.61100584,.00013014,97.9457,214.2937,202.9904,281.7027,0,U,25994,999,40908,.84721343E-4,.372E-5,0
CLUSTER II-FM7 (SAMBA),2000-041A,2026-06-14T21:49:34.992192,0.44879327,.90502639,149.9112,50.5199,267.6271,359.8755,0,U,26410,999,2029,0,.8926E-4,0
CLUSTER II-FM8 (TANGO),2000-045B,2026-06-12T22:27:38.392992,0.44415453,.90555409,150.1475,51.1959,268.1324,3.0125,0,U,26464,999,2029,0,.6615E-4,0
ODIN,2001-007A,2026-06-13T14:24:48.123072,15.74659438,.00064648,97.3844,205.3153,147.3614,212.8052,0,U,26702,999,38883,.11817272E-2,.175916E-2,0
TIMED,2001-055B,2026-06-13T14:18:15.866208,14.95288346,.00009229,74.0675,242.2492,342.4496,17.6656,0,U,26998,999,33028,.10848536E-3,.1156E-4,0
CORIOLIS,2003-001A,2026-06-13T14:28:59.129760,14.19943887,.00131881,98.7125,171.5429,219.6568,140.3645,0,U,27640,999,21371,.6302644E-4,.9E-6,0
SORCE,2003-004A,2026-06-13T14:52:13.255104,15.03696395,.00169406,39.9912,282.0326,22.3556,337.7973,0,U,27651,999,27136,.21732915E-3,.2888E-4,0
MOST,2003-031D,2026-06-13T13:12:56.478816,14.21321833,.0008687,98.7045,172.3274,262.3473,97.6717,0,U,27843,999,19019,.50140933E-4,.66E-6,0
SCISAT 1,2003-036A,2026-06-13T09:02:04.581024,14.81444219,.0008628,73.9285,178.9144,248.3864,111.6394,0,U,27858,999,23088,.64217071E-4,.466E-5,0
SWIFT,2004-047A,2026-06-13T10:24:49.806720,15.67989635,.00018187,20.5501,213.8473,226.7850,133.2444,0,U,28485,999,18627,.41971148E-3,.49808E-3,0
HINODE (SOLAR-B),2006-041A,2026-06-13T15:25:13.008288,14.68618745,.0016132,98.0549,180.8473,302.0569,57.9069,0,U,29479,999,5435,.12108331E-3,.656E-5,0
SHIJIAN-6 02A (SJ-6 02A),2006-046A,2026-06-13T15:52:27.292800,15.16906424,.00041026,97.6361,205.7017,133.5641,226.5933,0,U,29505,999,7173,.43586129E-3,.8526E-4,0
SHIJIAN-6 02B (SJ-6 02B),2006-046B,2026-06-13T14:44:17.572128,15.01369387,.00151775,97.7164,193.6947,70.6200,289.6664,0,U,29506,999,7020,.12326371E-3,.1531E-4,0
FGRST (GLAST),2008-029A,2026-06-13T13:28:57.999360,15.23933052,.00075792,25.5812,229.6566,284.3079,75.6618,0,U,33053,999,99528,.1098601E-3,.3071E-4,0
SDO,2010-005A,2026-06-13T07:21:38.625984,1.00270114,.00016732,34.6434,86.4016,51.3791,132.2019,0,U,36395,999,6002,0,-.88E-6,0
CRYOSAT 2,2010-013A,2026-06-13T15:15:06.952032,14.51898017,.00021834,92.0352,276.4383,88.0653,272.0804,0,U,36508,999,85756,.40556789E-4,.166E-5,0
X-SAT,2011-015C,2026-06-13T15:28:52.627584,14.25204671,.00142324,98.3501,141.8369,358.9855,1.1294,0,U,37389,999,78717,.3455677E-5,-.33E-6,0
GCOM-W1 (SHIZUKU),2012-025A,2026-06-13T14:53:44.969568,14.57121686,.00018144,98.2022,105.2303,77.3740,95.5843,0,U,38337,999,74851,.10543773E-3,.43E-5,0
NUSTAR,2012-031A,2026-06-13T16:00:01.999584,15.08772220,.00070654,6.0269,60.5394,48.7425,305.3387,0,U,38358,999,130,.47214034E-3,.8509E-4,0
NEOSSAT,2013-009D,2026-06-13T10:42:52.562880,14.35825190,.00098104,98.4175,344.5681,256.3381,103.6713,0,U,39089,999,69620,.62388175E-4,.138E-5,0
BRITE-AUSTRIA,2013-009F,2026-06-13T10:43:34.682016,14.36540717,.00090312,98.3993,343.9753,249.1124,110.9097,0,U,39091,999,69651,.68447046E-4,.158E-5,0
IRIS,2013-033A,2026-06-13T12:40:59.091744,14.85878789,.00238043,97.9332,3.8171,334.1782,25.8243,0,U,39197,999,69983,.12169978E-3,.1009E-4,0
HISAKI (SPRINT-A),2013-049A,2026-06-12T22:20:08.675808,13.55544353,.01368916,29.7192,241.6544,342.3499,17.2350,0,U,39253,999,63084,.10132348E-3,.139E-5,0
CASSIOPE,2013-055A,2026-06-13T13:16:53.751360,15.24860057,.02940575,80.9156,71.1331,74.6430,288.7088,0,U,39265,999,66711,.55711221E-3,.50826E-3,-.400828E-6
STSAT-3,2013-066G,2026-06-13T15:36:25.093152,15.02737203,.00111416,97.6209,134.5953,54.2621,305.9639,0,U,39422,999,68367,.23806268E-3,.3124E-4,0
SWARM B,2013-067A,2026-06-13T14:21:59.421888,15.28531338,.00033643,87.7433,343.4074,88.3080,271.8554,0,U,39451,999,68269,.1214692E-3,.3405E-4,0
